DataRate=200.000000
DataType=Quaternion
version=3
OpenSimVersion=4.4-2022-07-23-0e9fedc
endheader
time	femur_r_imu	femur_l_imu	calcn_l_imu	pelvis_imu	calcn_r_imu
0	0.055211720835117196, -0.04594776767608455, -0.6811665558439609, -0.7285963160267046	0.01969988156308222, 0.0025689845551042367, -0.4473973102194406, 0.8941146245270603	0.43142423820709336, 0.48267604913733164, 0.5436942938791554, 0.5341287046020391	0.17438506246806704, 0.25588324668098006, 0.7049952553159126, 0.6380402056595335	0.4471389318463404, 0.3928546667806143, 0.5724178975585217, 0.5639767166919994